STARLINK-1664
1 16553C 20070X   21326.14495096  .00000435  00000-0  29164-4 0  3266
2 16553  53.0536 348.0969 0001558  58.5075  40.3807 15.06407213    17
